IRIDIUM 159             
1 43578U 18061K   24125.40359351  .00000331  00000+0  11095-3 0  9992
2 43578  86.4013  20.0783 0002291  90.3331 269.8127 14.34219370302479
IRIDIUM 180             
1 43922U 19002A   24124.84494211  .00000131  00000+0  39667-4 0  9997
2 43922  86.3938 317.2147 0002244  90.1654 269.9799 14.34213396278005
IRIDIUM 176             
1 43923U 19002B   24125.55061094  .00000507  00000+0  76534-4 0  9997
2 43923  86.6065 316.9445 0002459  94.0411 266.1087 14.72239189285422
IRIDIUM 168             
1 43924U 19002C   24124.83859298  .00000131  00000+0  39622-4 0  9999
2 43924  86.3941 317.2729 0002135  92.0821 268.0619 14.34215482277988
IRIDIUM 173             
1 43925U 19002D   24124.89567666 -.00000015  00000+0 -12424-4 0  9995
2 43925  86.3932 317.1694 0002104  90.3254 269.8183 14.34215598277978
IRIDIUM 169             
1 43926U 19002E   24125.09651997  .00000449  00000+0  14043-3 0  9997
2 43926  86.4244 348.7005 0003616  53.1613 306.9916 14.38606718278933
IRIDIUM 172             
1 43927U 19002F   24125.51725199  .00000127  00000+0  38384-4 0  9999
2 43927  86.3936 316.9150 0002171  92.1479 267.9966 14.34216580278073
IRIDIUM 175             
1 43928U 19002G   24125.20494814  .00000546  00000+0  82624-4 0  9994
2 43928  86.1466 292.7050 0002359  88.8503 271.2983 14.72248541285369
